DOT-1                   
1 44399U 19038P   22114.34784890  .00007728  00000+0  42155-3 0  9996
2 44399  97.6349  82.7575 0022185 329.9257  30.0699 15.14439902154755
SOKRAT                  
1 44404U 19038U   22114.32508901  .00013876  00000+0  71894-3 0  9991
2 44404  97.6302  83.3965 0018928 327.2942  32.7117 15.16152004154811
LUCKY-7                 
1 44406U 19038W   22114.36972032  .00008657  00000+0  46653-3 0  9993
2 44406  97.6341  83.1127 0021660 321.8454  38.1243 15.14843101154777
D-STAR ONE (EXOCONNECT) 
1 44410U 19038AA  22114.37426993  .00019028  00000+0  92874-3 0  9999
2 44410  97.6264  84.1479 0017610 323.2275  36.7750 15.18194063154883
NARSSCUBE-2             
1 44415U 19022E   22114.45640832  .00009948  00000+0  31102-3 0  9993
2 44415  51.6428  18.9270 0010391 216.6454 143.3818 15.33726119151828
DUCHIFAT-3              
1 44854U 19089C   22114.22019468  .00004398  00000+0  34722-3 0  9998
2 44854  36.9651  61.7601 0006767 149.1683 210.9470 15.00629063129788
OPS-SAT                 
1 44878U 19092F   22114.46221286  .00013305  00000+0  63671-3 0  9990
2 44878  97.4810 298.9137 0013429 164.0212 196.1448 15.19015493129997
FLORIPASAT-1            
1 44885U 19093G   22114.30078497  .00001993  00000+0  25200-3 0  9992
2 44885  97.8967 195.4289 0014661  14.9998 345.1662 14.82899965126820
HUSKYSAT-1 (HO-107)     
1 45119U 19071J   22114.30482867  .00026597  00000+0  62179-3 0  9992
2 45119  51.6403 324.9873 0008595 332.3067  27.7460 15.41935006125006
BY70-2                  
1 45857U 20042B   22114.31811472  .00006666  00000+0  90925-3 0  9995
2 45857  97.9558 191.7071 0008785 290.6809  69.3523 14.78956537 97450
SALSAT                  
1 46495U 20068K   22114.55275651  .00002709  00000+0  19878-3 0  9993
2 46495  97.7260  55.8620 0018819  98.9909 261.3448 15.04215244 86086
NETSAT-4                
1 46504U 20068U   22114.59259853  .00002958  00000+0  22391-3 0  9994
2 46504  97.7198  54.5164 0012295 138.9140 221.3034 15.03036677 85952
NETSAT-3                
1 46505U 20068V   22114.53978491  .00002813  00000+0  21329-3 0  9995
2 46505  97.7200  54.3937 0011796 144.3223 215.8820 15.03015154 85959
NETSAT-1                
1 46506U 20068W   22114.55436092  .00003361  00000+0  25423-3 0  9992
2 46506  97.7198  54.3457 0010473 154.2562 205.9180 15.02982824 85955
NETSAT-2                
1 46507U 20068X   22114.56287029  .00003592  00000+0  27168-3 0  9992
2 46507  97.7186  54.3468 0009561 163.3415 196.8122 15.02947186 85900
BY70-3                  
1 46839U 20079N   22114.47995733  .00024694  00000+0  63038-3 0  9992
2 46839  97.2016 187.3660 0007304 159.6084 328.8060 15.39455054 81934
SPOC                    
1 46921U 98067RR  22114.43988774  .00160660  00000+0  94058-3 0  9999
2 46921  51.6313 210.1828 0005778 334.0889  25.9821 15.77301683 83433
NEUTRON-1               
1 46923U 98067RT  22114.54371323  .00155275  00000+0  91550-3 0  9999
2 46923  51.6319 210.1376 0005828 330.2156  29.8512 15.77159618 83473
DESCENT                 
1 46927U 98067RX  22114.44708789  .00164366  00000+0  91136-3 0  9993
2 46927  51.6324 210.2336 0006382 329.2015  30.8610 15.78501669 83376
UVSQ-SAT                
1 47438U 21006AB  22114.39716044  .00008411  00000+0  45345-3 0  9996
2 47438  97.4422 174.5303 0013766 103.1628 257.1141 15.14948319 69093
SOMP2B                  
1 47445U 21006AJ  22114.38504716  .00008833  00000+0  47945-3 0  9990
2 47445  97.4394 174.2281 0013388 106.7214 253.5489 15.14693182 69080
WARP-01                 
1 47924U 98067SA  22114.31024510  .00965240  47456-3  16556-2 0  9992
2 47924  51.6234 212.9270 0012620 336.6796  23.3640 16.01745252 63373
RSP-01                  
1 47925U 98067SB  22114.41244182  .00212058  00000+0  12108-2 0  9994
2 47925  51.6340 219.7680 0006736 334.6138  25.4531 15.77699382 63276
TAUSAT-1                
1 47926U 98067SC  22114.55759316  .00721100  23851-3  15913-2 0  9993
2 47926  51.6187 210.8549 0012656 344.7840  15.2786 15.97296219 63398
TSURU                   
1 47927U 98067SD  22114.55556504  .00145898  00000+0  10286-2 0  9997
2 47927  51.6341 221.4748 0005305 334.6899  25.3839 15.73086882 63269
MAYA-2                  
1 47929U 98067SF  22114.30061049  .00150746  00000+0  10723-2 0  9991
2 47929  51.6338 222.7723 0005155 334.1708  25.9033 15.72861991 63185
GUARANISAT-1            
1 47931U 98067SH  22114.54220168  .00145115  00000+0  10201-2 0  9994
2 47931  51.6351 221.4043 0005346 335.3824  24.6919 15.73157696 63267
DIY-1 (ARDUIQUBE)       
1 47963U 21022AH  22113.96878132  .00021076  00000+0  12390-2 0  9991
2 47963  97.5364  16.0198 0016218 327.9922  32.0322 15.11588041 58719
